STARLINK-2131           
1 47728U 21017G   26068.63905039  .00001611  00000+0  12702-3 0  9999
2 47728  53.0571 201.8436 0001618 125.9320 234.1819 15.06408126277910
SEDNA-1                 
1 60580U 24149DS  26068.76583836  .00008721  00000+0  60834-3 0  9998
2 60580  97.6673 149.7617 0008344 330.8481  29.2278 15.05597965 85421
